{"fetched_at":"2026-07-12T17:32:47.614Z","source":"https://celestrak.org/NORAD/elements/gp.php?NAME=HAWK&FORMAT=JSON","constellation":"hawkeye-360","records":[{"OBJECT_NAME":"HAWK-7B","OBJECT_ID":"2023-054R","EPOCH":"2026-07-12T06:22:47.977248","CLASSIFICATION_TYPE":"U","MEAN_MOTION":15.27610487,"ECCENTRICITY":0.0001644,"INCLINATION":97.2699,"RA_OF_ASC_NODE":78.2387,"ARG_OF_PERICENTER":22.7496,"MEAN_ANOMALY":337.3816,"EPHEMERIS_TYPE":0,"NORAD_CAT_ID":56193,"ELEMENT_SET_NO":999,"REV_AT_EPOCH":18085,"BSTAR":0.0001142,"MEAN_MOTION_DOT":0.0000301,"MEAN_MOTION_DDOT":0},{"OBJECT_NAME":"HAWK-7C","OBJECT_ID":"2023-054Y","EPOCH":"2026-07-12T01:39:39.172032","CLASSIFICATION_TYPE":"U","MEAN_MOTION":15.27613708,"ECCENTRICITY":0.00012174,"INCLINATION":97.2676,"RA_OF_ASC_NODE":78.8079,"ARG_OF_PERICENTER":6.702,"MEAN_ANOMALY":353.4236,"EPHEMERIS_TYPE":0,"NORAD_CAT_ID":56200,"ELEMENT_SET_NO":999,"REV_AT_EPOCH":18082,"BSTAR":0.0001274496,"MEAN_MOTION_DOT":0.00003368,"MEAN_MOTION_DDOT":0},{"OBJECT_NAME":"HAWK-8A","OBJECT_ID":"2024-066B","EPOCH":"2026-07-12T05:35:38.258016","CLASSIFICATION_TYPE":"U","MEAN_MOTION":14.99281267,"ECCENTRICITY":0.0002796,"INCLINATION":45.5951,"RA_OF_ASC_NODE":147.1342,"ARG_OF_PERICENTER":207.8181,"MEAN_ANOMALY":152.255,"EPHEMERIS_TYPE":0,"NORAD_CAT_ID":59443,"ELEMENT_SET_NO":999,"REV_AT_EPOCH":12359,"BSTAR":0.000069591,"MEAN_MOTION_DOT":0.00000631,"MEAN_MOTION_DDOT":0},{"OBJECT_NAME":"HAWK-8B","OBJECT_ID":"2024-066D","EPOCH":"2026-07-12T08:48:12.701088","CLASSIFICATION_TYPE":"U","MEAN_MOTION":14.99277515,"ECCENTRICITY":0.0002973,"INCLINATION":45.6158,"RA_OF_ASC_NODE":148.4163,"ARG_OF_PERICENTER":211.8882,"MEAN_ANOMALY":148.182,"EPHEMERIS_TYPE":0,"NORAD_CAT_ID":59445,"ELEMENT_SET_NO":999,"REV_AT_EPOCH":12360,"BSTAR":0.000023648,"MEAN_MOTION_DOT":6.2e-7,"MEAN_MOTION_DDOT":0},{"OBJECT_NAME":"HAWK-9A","OBJECT_ID":"2024-066E","EPOCH":"2026-07-12T06:08:58.895808","CLASSIFICATION_TYPE":"U","MEAN_MOTION":14.99210058,"ECCENTRICITY":0.0002521,"INCLINATION":45.6091,"RA_OF_ASC_NODE":147.6531,"ARG_OF_PERICENTER":193.003,"MEAN_ANOMALY":167.0787,"EPHEMERIS_TYPE":0,"NORAD_CAT_ID":59446,"ELEMENT_SET_NO":999,"REV_AT_EPOCH":12359,"BSTAR":0.000078212,"MEAN_MOTION_DOT":0.00000736,"MEAN_MOTION_DDOT":0},{"OBJECT_NAME":"HAWK-9C","OBJECT_ID":"2024-066G","EPOCH":"2026-07-12T06:09:21.702816","CLASSIFICATION_TYPE":"U","MEAN_MOTION":14.99213963,"ECCENTRICITY":0.0002315,"INCLINATION":45.6055,"RA_OF_ASC_NODE":146.7514,"ARG_OF_PERICENTER":175.7965,"MEAN_ANOMALY":184.2936,"EPHEMERIS_TYPE":0,"NORAD_CAT_ID":59448,"ELEMENT_SET_NO":999,"REV_AT_EPOCH":12359,"BSTAR":0.000085077,"MEAN_MOTION_DOT":0.00000821,"MEAN_MOTION_DDOT":0},{"OBJECT_NAME":"HAWK-8C","OBJECT_ID":"2024-066H","EPOCH":"2026-07-12T05:35:33.033408","CLASSIFICATION_TYPE":"U","MEAN_MOTION":14.99284869,"ECCENTRICITY":0.0002588,"INCLINATION":45.607,"RA_OF_ASC_NODE":148.1293,"ARG_OF_PERICENTER":218.4798,"MEAN_ANOMALY":141.5899,"EPHEMERIS_TYPE":0,"NORAD_CAT_ID":59449,"ELEMENT_SET_NO":999,"REV_AT_EPOCH":12358,"BSTAR":0.000070532,"MEAN_MOTION_DOT":0.00000643,"MEAN_MOTION_DDOT":0},{"OBJECT_NAME":"HAWK-9B","OBJECT_ID":"2024-066J","EPOCH":"2026-07-12T06:09:23.927616","CLASSIFICATION_TYPE":"U","MEAN_MOTION":14.9921284,"ECCENTRICITY":0.0002519,"INCLINATION":45.6131,"RA_OF_ASC_NODE":148.5879,"ARG_OF_PERICENTER":169.9156,"MEAN_ANOMALY":190.1777,"EPHEMERIS_TYPE":0,"NORAD_CAT_ID":59450,"ELEMENT_SET_NO":999,"REV_AT_EPOCH":12359,"BSTAR":0.000093308,"MEAN_MOTION_DOT":0.00000923,"MEAN_MOTION_DDOT":0},{"OBJECT_NAME":"HAWK-10A","OBJECT_ID":"2024-149CA","EPOCH":"2026-07-12T10:38:27.943872","CLASSIFICATION_TYPE":"U","MEAN_MOTION":14.9658958,"ECCENTRICITY":0.0003405,"INCLINATION":97.6893,"RA_OF_ASC_NODE":268.9211,"ARG_OF_PERICENTER":15.4839,"MEAN_ANOMALY":344.6486,"EPHEMERIS_TYPE":0,"NORAD_CAT_ID":60540,"ELEMENT_SET_NO":999,"REV_AT_EPOCH":10376,"BSTAR":0.000056601,"MEAN_MOTION_DOT":0.00000587,"MEAN_MOTION_DDOT":0},{"OBJECT_NAME":"HAWK-10B","OBJECT_ID":"2024-149CF","EPOCH":"2026-07-11T18:35:28.831200","CLASSIFICATION_TYPE":"U","MEAN_MOTION":14.9658783,"ECCENTRICITY":0.0005811,"INCLINATION":97.6812,"RA_OF_ASC_NODE":267.594,"ARG_OF_PERICENTER":27.0134,"MEAN_ANOMALY":333.1389,"EPHEMERIS_TYPE":0,"NORAD_CAT_ID":60545,"ELEMENT_SET_NO":999,"REV_AT_EPOCH":10366,"BSTAR":0.000059343572,"MEAN_MOTION_DOT":0.00000618,"MEAN_MOTION_DDOT":0},{"OBJECT_NAME":"HAWK-10C","OBJECT_ID":"2024-149DM","EPOCH":"2026-07-11T18:35:57.480576","CLASSIFICATION_TYPE":"U","MEAN_MOTION":14.96586892,"ECCENTRICITY":0.00029762,"INCLINATION":97.6731,"RA_OF_ASC_NODE":266.9081,"ARG_OF_PERICENTER":5.8193,"MEAN_ANOMALY":354.3063,"EPHEMERIS_TYPE":0,"NORAD_CAT_ID":60575,"ELEMENT_SET_NO":999,"REV_AT_EPOCH":10366,"BSTAR":0.000048414647,"MEAN_MOTION_DOT":0.00000494,"MEAN_MOTION_DDOT":0},{"OBJECT_NAME":"HAWK-11B","OBJECT_ID":"2024-247C","EPOCH":"2026-07-12T07:10:18.600960","CLASSIFICATION_TYPE":"U","MEAN_MOTION":15.30640892,"ECCENTRICITY":0.0003413,"INCLINATION":45.0137,"RA_OF_ASC_NODE":152.0611,"ARG_OF_PERICENTER":4.5068,"MEAN_ANOMALY":355.5847,"EPHEMERIS_TYPE":0,"NORAD_CAT_ID":62379,"ELEMENT_SET_NO":999,"REV_AT_EPOCH":8685,"BSTAR":0.00015345,"MEAN_MOTION_DOT":0.00004329,"MEAN_MOTION_DDOT":0},{"OBJECT_NAME":"HAWK-11C","OBJECT_ID":"2024-247E","EPOCH":"2026-07-11T21:45:46.406304","CLASSIFICATION_TYPE":"U","MEAN_MOTION":15.30634627,"ECCENTRICITY":0.0004418,"INCLINATION":45.0017,"RA_OF_ASC_NODE":153.5448,"ARG_OF_PERICENTER":351.8498,"MEAN_ANOMALY":8.2314,"EPHEMERIS_TYPE":0,"NORAD_CAT_ID":62381,"ELEMENT_SET_NO":999,"REV_AT_EPOCH":8679,"BSTAR":0.0001548,"MEAN_MOTION_DOT":0.00004369,"MEAN_MOTION_DDOT":0},{"OBJECT_NAME":"HAWK-11A","OBJECT_ID":"2024-247F","EPOCH":"2026-07-10T22:16:11.620992","CLASSIFICATION_TYPE":"U","MEAN_MOTION":15.30622161,"ECCENTRICITY":0.00040652,"INCLINATION":44.9912,"RA_OF_ASC_NODE":158.2462,"ARG_OF_PERICENTER":346.2323,"MEAN_ANOMALY":13.845,"EPHEMERIS_TYPE":0,"NORAD_CAT_ID":62382,"ELEMENT_SET_NO":999,"REV_AT_EPOCH":8664,"BSTAR":0.00012010662,"MEAN_MOTION_DOT":0.00003319,"MEAN_MOTION_DDOT":0},{"OBJECT_NAME":"HAWK-12C","OBJECT_ID":"2025-138A","EPOCH":"2026-07-12T11:33:47.776608","CLASSIFICATION_TYPE":"U","MEAN_MOTION":15.183929,"ECCENTRICITY":0.0015497,"INCLINATION":97.4348,"RA_OF_ASC_NODE":195.4988,"ARG_OF_PERICENTER":59.664,"MEAN_ANOMALY":300.6124,"EPHEMERIS_TYPE":0,"NORAD_CAT_ID":64621,"ELEMENT_SET_NO":999,"REV_AT_EPOCH":5770,"BSTAR":0.00012689,"MEAN_MOTION_DOT":0.00002548,"MEAN_MOTION_DDOT":0},{"OBJECT_NAME":"HAWK-12B","OBJECT_ID":"2025-138B","EPOCH":"2026-07-12T11:34:02.754048","CLASSIFICATION_TYPE":"U","MEAN_MOTION":15.18392421,"ECCENTRICITY":0.0014377,"INCLINATION":97.4472,"RA_OF_ASC_NODE":196.1881,"ARG_OF_PERICENTER":55.8693,"MEAN_ANOMALY":304.3902,"EPHEMERIS_TYPE":0,"NORAD_CAT_ID":64622,"ELEMENT_SET_NO":999,"REV_AT_EPOCH":5770,"BSTAR":0.0001269,"MEAN_MOTION_DOT":0.00002547,"MEAN_MOTION_DDOT":0}]}
